ONEWEB-0415             
1 51624U 22012C   25144.88452234  .00000137  00000+0  35667-3 0  9997
2 51624  87.8809 113.6948 0002239  91.4043 268.7341 13.10375369158439
ONEWEB-0416             
1 51625U 22012D   25145.20157870  .00000561  00000+0  15697-2 0  9994
2 51625  87.8814 113.6464 0002125  84.1977 275.9392 13.10373786159807
ONEWEB-0422             
1 51626U 22012E   25145.11764043  .00000039  00000+0  66433-4 0  9997
2 51626  87.9063  83.1152 0001346  92.0555 268.0730 13.17647672163982
ONEWEB-0423             
1 51627U 22012F   25145.11088521 -.00000005  00000+0 -45426-4 0  9992
2 51627  87.9065  83.1227 0001966  78.4287 281.7065 13.17647379163882
ONEWEB-0425             
1 51628U 22012G   25144.67705652  .00000556  00000+0  15564-2 0  9991
2 51628  87.8804 113.7227 0002139  75.2989 284.8375 13.10372373158446
ONEWEB-0428             
1 51629U 22012H   25144.88618198  .00000252  00000+0  68533-3 0  9991
2 51629  87.8813 113.7019 0001945  89.3770 270.7580 13.10375161159715
ONEWEB-0431             
1 51630U 22012J   25144.62707654 -.00000571  00000+0 -16730-2 0  9998
2 51630  87.8802 113.7278 0002087 101.7039 258.4323 13.10372120159740
ONEWEB-0434             
1 51631U 22012K   25144.60399331  .00000476  00000+0  13275-2 0  9999
2 51631  87.8807 113.7706 0002189  67.0521 293.0837 13.10369775158437
